[
    {
        "Altitude(m)": 604234.6179753469,
        "Argument of Periapsis(deg)": 0.0,
        "Eccentricity": 0.0,
        "Inclination(deg)": 60.0,
        "Latitude(deg)": 14.117285637438629,
        "Longitude(deg)": 151.7273511775561,
        "Mean Anomaly(deg)": 163.6364,
        "RAAN(deg)": 80.0,
        "Satellite Name": "Test1 362",
        "Satellite Number": 362,
        "Semi-Major Axis(m)": 6980739.136638005,
        "Time(s)": 0
    },
    {
        "Altitude(m)": 604223.4461571854,
        "Argument of Periapsis(deg)": 0.00010418945913296404,
        "Eccentricity": 0.0,
        "Inclination(deg)": 60.0,
        "Latitude(deg)": 13.5824215278294,
        "Longitude(deg)": 152.0142594741508,
        "Mean Anomaly(deg)": 164.25650614546186,
        "RAAN(deg)": 79.99957995086025,
        "Satellite Name": "Test1 362",
        "Satellite Number": 362,
        "Semi-Major Axis(m)": 6980739.136638005,
        "Time(s)": 10
    }
]